SL-14 R/B               
1 16792U 86046B   26076.48578500  .00000449  00000+0  48897-4 0  9993
2 16792  82.4785  72.8128 0022548 198.6182 161.4212 14.85598106127560
SL-14 R/B               
1 16882U 86055B   26076.56556708  .00000422  00000+0  45791-4 0  9999
2 16882  82.5186 119.2706 0017625 309.1840 203.7466 14.85649766120534
AJISAI (EGS)            
1 16908U 86061A   26076.59361294 -.00000096  00000+0  87128-5 0  9991
2 16908  50.0088  69.0419 0011293 307.4112 157.9672 12.44515696468985
SL-14 R/B               
1 17567U 87024B   26076.38168080  .00000448  00000+0  48262-4 0  9993
2 17567  82.5244  85.5317 0016955 232.2986 127.6694 14.86139520 89270
COSMOS 1833             
1 17589U 87027A   26076.64714344 -.00000215  00000+0 -89092-4 0  9999
2 17589  70.9203 309.2947 0023856 203.1456 156.8592 14.13052393 11449
SL-16 R/B               
1 17590U 87027B   26076.24482204 -.00000017  00000+0  15346-4 0  9994
2 17590  70.9993 260.5727 0003133 125.6346 234.5070 14.17166780 16411
SL-14 R/B               
1 17912U 87038B   26076.51534032  .00000417  00000+0  45460-4 0  9994
2 17912  82.4988 289.4344 0020297 135.5778 224.7071 14.85376201 80391
COSMOS 1844             
1 17973U 87041A   26076.53243687 -.00000041  00000+0  37544-5 0  9999
2 17973  70.9007  17.6332 0030423   6.4058 353.7446 14.14551076  4694
SL-14 R/B               
1 18153U 87055B   26076.49085462  .00000454  00000+0  49482-4 0  9995
2 18153  82.5027 341.6809 0020430 352.3997   7.6906 14.85638089 71099
COSMOS 1867             
1 18187U 87060A   26076.54520761 -.00000032  00000+0  25787-4 0  9995
2 18187  65.0099 284.7057 0014601 279.1186  80.8247 14.31504234 21060
SL-14 R/B               
1 18749U 88001B   26076.55408341  .00000492  00000+0  54020-4 0  9996
2 18749  82.5160 187.9654 0017357 208.1641 151.8638 14.85537177 43195
COSMOS 1933             
1 18958U 88020A   26076.43649794  .00003128  00000+0  15212-3 0  9993
2 18958  82.5102 243.2451 0004480 156.8183 203.3254 15.18057861 51401
