CCSDS_OMM_VERS = 2.0
CREATION_DATE  = 
ORIGINATOR     = 

OBJECT_NAME    = SL-14 R/B
OBJECT_ID      = 1986-046B
CENTER_NAME    = EARTH
REF_FRAME      = TEME
TIME_SYSTEM    = UTC
MEAN_ELEMENT_THEORY = SGP/SGP4

EPOCH          = 2026-03-17T11:39:31.824000
MEAN_MOTION    = 14.85598106
ECCENTRICITY   = .00225487
INCLINATION    = 82.4785
RA_OF_ASC_NODE = 72.8128
ARG_OF_PERICENTER = 198.6182
MEAN_ANOMALY   = 161.4212

EPHEMERIS_TYPE = 0
CLASSIFICATION_TYPE = U
NORAD_CAT_ID   = 16792
ELEMENT_SET_NO = 999
REV_AT_EPOCH   = 12756
BSTAR          = .48896555E-4
MEAN_MOTION_DOT = .449E-5
MEAN_MOTION_DDOT = 0

CCSDS_OMM_VERS = 2.0
CREATION_DATE  = 
ORIGINATOR     = 

OBJECT_NAME    = SL-14 R/B
OBJECT_ID      = 1986-055B
CENTER_NAME    = EARTH
REF_FRAME      = TEME
TIME_SYSTEM    = UTC
MEAN_ELEMENT_THEORY = SGP/SGP4

EPOCH          = 2026-03-17T13:34:24.995712
MEAN_MOTION    = 14.85649766
ECCENTRICITY   = .00176254
INCLINATION    = 82.5186
RA_OF_ASC_NODE = 119.2706
ARG_OF_PERICENTER = 309.1840
MEAN_ANOMALY   = 203.7466

EPHEMERIS_TYPE = 0
CLASSIFICATION_TYPE = U
NORAD_CAT_ID   = 16882
ELEMENT_SET_NO = 999
REV_AT_EPOCH   = 12053
BSTAR          = .45791169E-4
MEAN_MOTION_DOT = .422E-5
MEAN_MOTION_DDOT = 0

CCSDS_OMM_VERS = 2.0
CREATION_DATE  = 
ORIGINATOR     = 

OBJECT_NAME    = AJISAI (EGS)
OBJECT_ID      = 1986-061A
CENTER_NAME    = EARTH
REF_FRAME      = TEME
TIME_SYSTEM    = UTC
MEAN_ELEMENT_THEORY = SGP/SGP4

EPOCH          = 2026-03-17T14:14:48.158016
MEAN_MOTION    = 12.44515696
ECCENTRICITY   = .00112932
INCLINATION    = 50.0088
RA_OF_ASC_NODE = 69.0419
ARG_OF_PERICENTER = 307.4112
MEAN_ANOMALY   = 157.9672

EPHEMERIS_TYPE = 0
CLASSIFICATION_TYPE = U
NORAD_CAT_ID   = 16908
ELEMENT_SET_NO = 999
REV_AT_EPOCH   = 46898
BSTAR          = .8712842E-5
MEAN_MOTION_DOT = -.96E-6
MEAN_MOTION_DDOT = 0

CCSDS_OMM_VERS = 2.0
CREATION_DATE  = 
ORIGINATOR     = 

OBJECT_NAME    = SL-14 R/B
OBJECT_ID      = 1987-024B
CENTER_NAME    = EARTH
REF_FRAME      = TEME
TIME_SYSTEM    = UTC
MEAN_ELEMENT_THEORY = SGP/SGP4

EPOCH          = 2026-03-17T09:09:37.221120
MEAN_MOTION    = 14.86139520
ECCENTRICITY   = .00169558
INCLINATION    = 82.5244
RA_OF_ASC_NODE = 85.5317
ARG_OF_PERICENTER = 232.2986
MEAN_ANOMALY   = 127.6694

EPHEMERIS_TYPE = 0
CLASSIFICATION_TYPE = U
NORAD_CAT_ID   = 17567
ELEMENT_SET_NO = 999
REV_AT_EPOCH   = 8927
BSTAR          = .48261702E-4
MEAN_MOTION_DOT = .448E-5
MEAN_MOTION_DDOT = 0

CCSDS_OMM_VERS = 2.0
CREATION_DATE  = 
ORIGINATOR     = 

OBJECT_NAME    = COSMOS 1833
OBJECT_ID      = 1987-027A
CENTER_NAME    = EARTH
REF_FRAME      = TEME
TIME_SYSTEM    = UTC
MEAN_ELEMENT_THEORY = SGP/SGP4

EPOCH          = 2026-03-17T15:31:53.193216
MEAN_MOTION    = 14.13052393
ECCENTRICITY   = .00238564
INCLINATION    = 70.9203
RA_OF_ASC_NODE = 309.2947
ARG_OF_PERICENTER = 203.1456
MEAN_ANOMALY   = 156.8592

EPHEMERIS_TYPE = 0
CLASSIFICATION_TYPE = U
NORAD_CAT_ID   = 17589
ELEMENT_SET_NO = 999
REV_AT_EPOCH   = 1144
BSTAR          = -.89092356E-4
MEAN_MOTION_DOT = -.215E-5
MEAN_MOTION_DDOT = 0

CCSDS_OMM_VERS = 2.0
CREATION_DATE  = 
ORIGINATOR     = 

OBJECT_NAME    = SL-16 R/B
OBJECT_ID      = 1987-027B
CENTER_NAME    = EARTH
REF_FRAME      = TEME
TIME_SYSTEM    = UTC
MEAN_ELEMENT_THEORY = SGP/SGP4

EPOCH          = 2026-03-17T05:52:32.624256
MEAN_MOTION    = 14.17166780
ECCENTRICITY   = .00031333
INCLINATION    = 70.9993
RA_OF_ASC_NODE = 260.5727
ARG_OF_PERICENTER = 125.6346
MEAN_ANOMALY   = 234.5070

EPHEMERIS_TYPE = 0
CLASSIFICATION_TYPE = U
NORAD_CAT_ID   = 17590
ELEMENT_SET_NO = 999
REV_AT_EPOCH   = 1641
BSTAR          = .15345677E-4
MEAN_MOTION_DOT = -.17E-6
MEAN_MOTION_DDOT = 0

CCSDS_OMM_VERS = 2.0
CREATION_DATE  = 
ORIGINATOR     = 

OBJECT_NAME    = SL-14 R/B
OBJECT_ID      = 1987-038B
CENTER_NAME    = EARTH
REF_FRAME      = TEME
TIME_SYSTEM    = UTC
MEAN_ELEMENT_THEORY = SGP/SGP4

EPOCH          = 2026-03-17T12:22:05.403648
MEAN_MOTION    = 14.85376201
ECCENTRICITY   = .00202972
INCLINATION    = 82.4988
RA_OF_ASC_NODE = 289.4344
ARG_OF_PERICENTER = 135.5778
MEAN_ANOMALY   = 224.7071

EPHEMERIS_TYPE = 0
CLASSIFICATION_TYPE = U
NORAD_CAT_ID   = 17912
ELEMENT_SET_NO = 999
REV_AT_EPOCH   = 8039
BSTAR          = .45459952E-4
MEAN_MOTION_DOT = .417E-5
MEAN_MOTION_DDOT = 0

CCSDS_OMM_VERS = 2.0
CREATION_DATE  = 
ORIGINATOR     = 

OBJECT_NAME    = COSMOS 1844
OBJECT_ID      = 1987-041A
CENTER_NAME    = EARTH
REF_FRAME      = TEME
TIME_SYSTEM    = UTC
MEAN_ELEMENT_THEORY = SGP/SGP4

EPOCH          = 2026-03-17T12:46:42.545568
MEAN_MOTION    = 14.14551076
ECCENTRICITY   = .00304239
INCLINATION    = 70.9007
RA_OF_ASC_NODE = 17.6332
ARG_OF_PERICENTER = 6.4058
MEAN_ANOMALY   = 353.7446

EPHEMERIS_TYPE = 0
CLASSIFICATION_TYPE = U
NORAD_CAT_ID   = 17973
ELEMENT_SET_NO = 999
REV_AT_EPOCH   = 469
BSTAR          = .3754356E-5
MEAN_MOTION_DOT = -.41E-6
MEAN_MOTION_DDOT = 0

CCSDS_OMM_VERS = 2.0
CREATION_DATE  = 
ORIGINATOR     = 

OBJECT_NAME    = SL-14 R/B
OBJECT_ID      = 1987-055B
CENTER_NAME    = EARTH
REF_FRAME      = TEME
TIME_SYSTEM    = UTC
MEAN_ELEMENT_THEORY = SGP/SGP4

EPOCH          = 2026-03-17T11:46:49.839168
MEAN_MOTION    = 14.85638089
ECCENTRICITY   = .00204303
INCLINATION    = 82.5027
RA_OF_ASC_NODE = 341.6809
ARG_OF_PERICENTER = 352.3997
MEAN_ANOMALY   = 7.6906

EPHEMERIS_TYPE = 0
CLASSIFICATION_TYPE = U
NORAD_CAT_ID   = 18153
ELEMENT_SET_NO = 999
REV_AT_EPOCH   = 7109
BSTAR          = .49481814E-4
MEAN_MOTION_DOT = .454E-5
MEAN_MOTION_DDOT = 0

CCSDS_OMM_VERS = 2.0
CREATION_DATE  = 
ORIGINATOR     = 

OBJECT_NAME    = COSMOS 1867
OBJECT_ID      = 1987-060A
CENTER_NAME    = EARTH
REF_FRAME      = TEME
TIME_SYSTEM    = UTC
MEAN_ELEMENT_THEORY = SGP/SGP4

EPOCH          = 2026-03-17T13:05:05.937504
MEAN_MOTION    = 14.31504234
ECCENTRICITY   = .00146013
INCLINATION    = 65.0099
RA_OF_ASC_NODE = 284.7057
ARG_OF_PERICENTER = 279.1186
MEAN_ANOMALY   = 80.8247

EPHEMERIS_TYPE = 0
CLASSIFICATION_TYPE = U
NORAD_CAT_ID   = 18187
ELEMENT_SET_NO = 999
REV_AT_EPOCH   = 2106
BSTAR          = .25786822E-4
MEAN_MOTION_DOT = -.32E-6
MEAN_MOTION_DDOT = 0

CCSDS_OMM_VERS = 2.0
CREATION_DATE  = 
ORIGINATOR     = 

OBJECT_NAME    = SL-14 R/B
OBJECT_ID      = 1988-001B
CENTER_NAME    = EARTH
REF_FRAME      = TEME
TIME_SYSTEM    = UTC
MEAN_ELEMENT_THEORY = SGP/SGP4

EPOCH          = 2026-03-17T13:17:52.806624
MEAN_MOTION    = 14.85537177
ECCENTRICITY   = .00173572
INCLINATION    = 82.5160
RA_OF_ASC_NODE = 187.9654
ARG_OF_PERICENTER = 208.1641
MEAN_ANOMALY   = 151.8638

EPHEMERIS_TYPE = 0
CLASSIFICATION_TYPE = U
NORAD_CAT_ID   = 18749
ELEMENT_SET_NO = 999
REV_AT_EPOCH   = 4319
BSTAR          = .54019626E-4
MEAN_MOTION_DOT = .492E-5
MEAN_MOTION_DDOT = 0

CCSDS_OMM_VERS = 2.0
CREATION_DATE  = 
ORIGINATOR     = 

OBJECT_NAME    = COSMOS 1933
OBJECT_ID      = 1988-020A
CENTER_NAME    = EARTH
REF_FRAME      = TEME
TIME_SYSTEM    = UTC
MEAN_ELEMENT_THEORY = SGP/SGP4

EPOCH          = 2026-03-17T10:28:33.422016
MEAN_MOTION    = 15.18057861
ECCENTRICITY   = .00044805
INCLINATION    = 82.5102
RA_OF_ASC_NODE = 243.2451
ARG_OF_PERICENTER = 156.8183
MEAN_ANOMALY   = 203.3254

EPHEMERIS_TYPE = 0
CLASSIFICATION_TYPE = U
NORAD_CAT_ID   = 18958
ELEMENT_SET_NO = 999
REV_AT_EPOCH   = 5140
BSTAR          = .15211626E-3
MEAN_MOTION_DOT = .3128E-4
MEAN_MOTION_DDOT = 0

